ONEWEB-0053             
1 45157U 20008AC  24010.47509513  .00000667  00000+0  18757-2 0  9991
2 45157  87.8895 212.8106 0001271  88.7949 271.3324 13.10370514191520
ONEWEB-0054             
1 45158U 20008AD  24010.05266493 -.00000476  00000+0 -14012-2 0  9993
2 45158  87.8894 212.8791 0001380  86.2699 273.8586 13.10376423191584
ONEWEB-0056             
1 45159U 20008AE  24010.49131490 -.00000099  00000+0 -32095-3 0  9993
2 45159  87.8890 212.7872 0001260  91.9738 268.1534 13.10370835191798
ONEWEB-0057             
1 45160U 20008AF  24010.49780886 -.00000310  00000+0 -92510-3 0  9998
2 45160  87.8894 212.7823 0001356  94.1471 265.9811 13.10372650191964
ONEWEB-0058             
1 45161U 20008AG  24010.48498601  .00000497  00000+0  13868-2 0  9991
2 45161  87.8886 212.8300 0001518  92.1422 267.9879 13.10372537192030
ONEWEB-0059             
1 45162U 20008AH  24010.48159720  .00000504  00000+0  14076-2 0  9999
2 45162  87.8892 212.8028 0001532  92.3524 267.7779 13.10371064191935
ONEWEB-0062             
1 45163U 20008AJ  24010.05104278 -.00000554  00000+0 -16229-2 0  9990
2 45163  87.8895 212.8744 0001412  84.5125 275.6163 13.10375796191741
ONEWEB-0065             
1 45164U 20008AK  24010.48645221  .00000106  00000+0  26615-3 0  9998
2 45164  87.8896 212.7875 0001303  90.0794 270.0483 13.10368451191496
